*******************************************************************************
JPL/HORIZONS               3753 Cruithne (1986 TO)         2023-May-07 09:04:55
Rec #:    3753 (+COV) Soln.date: 2023-Mar-01_06:10:23   # obs: 1216 (1973-2022)
 
IAU76/J2000 helio. ecliptic osc. elements (au, days, deg., period=Julian yrs):
 
  EPOCH=  2456900.5 ! 2014-Aug-31.00 (TDB)         Residual RMS= .35645
   EC= .5148627256994029   QR= .4840184658385133   TP= 2457012.169995938
   OM= 126.2462939076055   W=  43.80978547847901   IN= 19.80747881540994
   A= .9976938311662474    MA= 249.5553600271496   ADIST= 1.511369196493981
   PER= .99656             N= .9890269900000001    ANGMOM= .014729875
   DAN= .53459             DDN= 1.16671            L= 168.3137556
   B= 13.566979            MOID= .0710535          TP= 2014-Dec-20.6699959380
 
Asteroid physical parameters (km, seconds, rotational period in hours):
   GM= n.a.                RAD= 1.0355             ROTPER= 27.3099
   H= 15.5                 G= .150                 B-V= n.a.
                           ALBEDO= .365            STYP= Q
 
ASTEROID comments: 
1: soln ref.= JPL#240, OCC=0
2: source=ORB
*******************************************************************************

  
  

*******************************************************************************
Ephemeris / WWW_USER Sun May  7 09:04:55 2023 Pasadena, USA      / Horizons
*******************************************************************************
Target body name: 3753 Cruithne (1986 TO)         {source: JPL#240}
Center body name: Earth (399)                     {source: DE441}
Center-site name: BODY CENTER
*******************************************************************************
Start time      : A.D. 2007-Sep-01 00:00:00.0000 TDB
Stop  time      : A.D. 2008-Sep-01 00:00:00.0000 TDB
Step-size       : 1440 minutes
*******************************************************************************
Center geodetic : 0.0, 0.0, 0.0                   {E-lon(deg),Lat(deg),Alt(km)}
Center cylindric: 0.0, 0.0, 0.0                   {E-lon(deg),Dxy(km),Dz(km)}
Center radii    : 6378.137, 6378.137, 6356.752 km {Equator_a, b, pole_c}
Small perturbers: Yes                             {source: SB441-N16}
Output units    : KM-S
Calendar mode   : Mixed Julian/Gregorian
Output type     : GEOMETRIC cartesian states
Output format   : 1 (position only)
EOP file        : eop.230504.p230727
EOP coverage    : DATA-BASED 1962-JAN-20 TO 2023-MAY-04. PREDICTS-> 2023-JUL-26
Reference frame : FK4/B1950 Earth mean equator and equinox
*******************************************************************************
Initial IAU76/J2000 heliocentric ecliptic osculating elements (au, days, deg.):
  EPOCH=  2456900.5 ! 2014-Aug-31.00 (TDB)         Residual RMS= .35645        
   EC= .5148627256994029   QR= .4840184658385133   TP= 2457012.169995938       
   OM= 126.2462939076055   W=  43.80978547847901   IN= 19.80747881540994       
  Equivalent ICRF heliocentric cartesian coordinates (au, au/d):
   X= 1.215347990905840E+00  Y= 5.153520927692684E-01  Z=-2.481738801145509E-01
  VX=-7.990656955364673E-03 VY= 8.039467650712289E-03 VZ= 3.939584837771865E-03
Asteroid physical parameters (km, seconds, rotational period in hours):        
   GM= n.a.                RAD= 1.0355             ROTPER= 27.3099             
   H= 15.5                 G= .150                 B-V= n.a.                   
                           ALBEDO= .365            STYP= Q                     
*******************************************************************************
            JDTDB,            Calendar Date (TDB),                      X,                      Y,                      Z,
**************************************************************************************************************************
$$SOE
2454594.500000000, A.D. 2008-May-08 00:00:00.0000,  2.819177386257488E+08,  1.088286092316310E+07, -2.700761465947604E+07,
2454595.500000000, A.D. 2008-May-09 00:00:00.0000,  2.812176877121722E+08,  1.363972540007431E+07, -2.641345675837225E+07,
2454596.500000000, A.D. 2008-May-10 00:00:00.0000,  2.804701469677867E+08,  1.637590034682762E+07, -2.582497804057209E+07,
2454597.500000000, A.D. 2008-May-11 00:00:00.0000,  2.796757574468696E+08,  1.909078884404271E+07, -2.524239477037947E+07,
2454598.500000000, A.D. 2008-May-12 00:00:00.0000,  2.788351556822597E+08,  2.178381791579616E+07, -2.466591291638681E+07,
2454599.500000000, A.D. 2008-May-13 00:00:00.0000,  2.779489717815939E+08,  2.445443442927786E+07, -2.409573036899757E+07,
2454600.500000000, A.D. 2008-May-14 00:00:00.0000,  2.770178291153917E+08,  2.710210152257191E+07, -2.353203878840260E+07,
2454601.500000000, A.D. 2008-May-15 00:00:00.0000,  2.760423448865507E+08,  2.972629581046299E+07, -2.297502499522415E+07,
2454602.500000000, A.D. 2008-May-16 00:00:00.0000,  2.750231310526912E+08,  3.232650530277671E+07, -2.242487196931458E+07,
2454603.500000000, A.D. 2008-May-17 00:00:00.0000,  2.739607953104803E+08,  3.490222784416299E+07, -2.188175957333868E+07,
2454604.500000000, A.D. 2008-May-18 00:00:00.0000,  2.728559420380018E+08,  3.745296988403116E+07, -2.134586510669233E+07,
2454605.500000000, A.D. 2008-May-19 00:00:00.0000,  2.717091731997067E+08,  3.997824544192515E+07, -2.081736375940272E+07,
2454606.500000000, A.D. 2008-May-20 00:00:00.0000,  2.705210892590076E+08,  4.247757520041821E+07, -2.029642899852649E+07,
2454607.500000000, A.D. 2008-May-21 00:00:00.0000,  2.692922901386628E+08,  4.495048570923680E+07, -1.978323289306060E+07,
2454608.500000000, A.D. 2008-May-22 00:00:00.0000,  2.680233762424940E+08,  4.739650871013884E+07, -1.927794637160973E+07,
2454609.500000000, A.D. 2008-May-23 00:00:00.0000,  2.667149495249408E+08,  4.981518059181842E+07, -1.878073940884257E+07,
2454610.500000000, A.D. 2008-May-24 00:00:00.0000,  2.653676145837287E+08,  5.220604196551497E+07, -1.829178114709815E+07,
2454611.500000000, A.D. 2008-May-25 00:00:00.0000,  2.639819797643751E+08,  5.456863732823723E+07, -1.781123997098608E+07,
2454612.500000000, A.D. 2008-May-26 00:00:00.0000,  2.625586583036017E+08,  5.690251476694273E+07, -1.733928355746346E+07,
2454613.500000000, A.D. 2008-May-27 00:00:00.0000,  2.610982695939209E+08,  5.920722566834411E+07, -1.687607891453699E+07,
2454614.500000000, A.D. 2008-May-28 00:00:00.0000,  2.596014407077954E+08,  6.148232444797127E+07, -1.642179239285970E+07,
2454615.500000000, A.D. 2008-May-29 00:00:00.0000,  2.580688083508826E+08,  6.372736840750863E+07, -1.597658960314596E+07,
2454616.500000000, A.D. 2008-May-30 00:00:00.0000,  2.565010213795846E+08,  6.594191797023630E+07, -1.554063510164236E+07,
2454617.500000000, A.D. 2008-May-31 00:00:00.0000,  2.548987438636558E+08,  6.812553770300163E+07, -1.511409163367503E+07,
2454618.500000000, A.D. 2008-Jun-01 00:00:00.0000,  2.532626583536360E+08,  7.027779862929337E+07, -1.469711869605647E+07,
2454619.500000000, A.D. 2008-Jun-02 00:00:00.0000,  2.515934685540136E+08,  7.239828222772911E+07, -1.428987026555850E+07,
2454620.500000000, A.D. 2008-Jun-03 00:00:00.0000,  2.498919002039323E+08,  7.448658604765674E+07, -1.389249180564909E+07,
2454621.500000000, A.D. 2008-Jun-04 00:00:00.0000,  2.481586990014248E+08,  7.654233008644609E+07, -1.350511706895220E+07,
2454622.500000000, A.D. 2008-Jun-05 00:00:00.0000,  2.463946251771781E+08,  7.856516233796726E+07, -1.312786554414688E+07,
2454623.500000000, A.D. 2008-Jun-06 00:00:00.0000,  2.446004456343774E+08,  8.055476183304746E+07, -1.276084135809883E+07,
2454624.500000000, A.D. 2008-Jun-07 00:00:00.0000,  2.427769256367193E+08,  8.251083832290548E+07, -1.240413394604781E+07,
2454625.500000000, A.D. 2008-Jun-08 00:00:00.0000,  2.409248220908755E+08,  8.443312904806714E+07, -1.205782012989362E+07,
2454626.500000000, A.D. 2008-Jun-09 00:00:00.0000,  2.390448795498588E+08,  8.632139395108020E+07, -1.172196682921147E+07,
2454627.500000000, A.D. 2008-Jun-10 00:00:00.0000,  2.371378288855312E+08,  8.817541078540154E+07, -1.139663365616757E+07,
2454628.500000000, A.D. 2008-Jun-11 00:00:00.0000,  2.352043878318339E+08,  8.999497105977607E+07, -1.108187495879018E+07,
2454629.500000000, A.D. 2008-Jun-12 00:00:00.0000,  2.332452624544358E+08,  9.177987712340137E+07, -1.077774121461316E+07,
2454630.500000000, A.D. 2008-Jun-13 00:00:00.0000,  2.312611488330681E+08,  9.352994026232161E+07, -1.048427988712386E+07,
2454631.500000000, A.D. 2008-Jun-14 00:00:00.0000,  2.292527345698520E+08,  9.524497949920116E+07, -1.020153592887894E+07,
2454632.500000000, A.D. 2008-Jun-15 00:00:00.0000,  2.272207000015433E+08,  9.692482078580198E+07, -9.929552099721231E+06,
2454633.500000000, A.D. 2008-Jun-16 00:00:00.0000,  2.251657191549702E+08,  9.856929635466035E+07, -9.668369218268877E+06,
2454634.500000000, A.D. 2008-Jun-17 00:00:00.0000,  2.230884605589921E+08,  1.001782440922107E+08, -9.418026410545632E+06,
2454635.500000000, A.D. 2008-Jun-18 00:00:00.0000,  2.209895880409956E+08,  1.017515068810649E+08, -9.178561374452760E+06,
2454636.500000000, A.D. 2008-Jun-19 00:00:00.0000,  2.188697616143618E+08,  1.032889319232164E+08, -8.950010647032820E+06,
2454637.500000000, A.D. 2008-Jun-20 00:00:00.0000,  2.167296385228795E+08,  1.047903700946530E+08, -8.732409844081756E+06,
2454638.500000000, A.D. 2008-Jun-21 00:00:00.0000,  2.145698744638827E+08,  1.062556753948909E+08, -8.525793837810187E+06,
2454639.500000000, A.D. 2008-Jun-22 00:00:00.0000,  2.123911249781281E+08,  1.076847045465965E+08, -8.330196844790665E+06,
2454640.500000000, A.D. 2008-Jun-23 00:00:00.0000,  2.101940469819974E+08,  1.090773167811362E+08, -8.145652407241744E+06,
2454641.500000000, A.D. 2008-Jun-24 00:00:00.0000,  2.079793004295493E+08,  1.104333738313999E+08, -7.972193257414310E+06,
2454642.500000000, A.D. 2008-Jun-25 00:00:00.0000,  2.057475501194739E+08,  1.117527401608776E+08, -7.809851049094135E+06,
2454643.500000000, A.D. 2008-Jun-26 00:00:00.0000,  2.034994676829732E+08,  1.130352835003978E+08, -7.658655916948221E+06,
